{"type": "FeatureCollection", "features": [ {"type": "Feature", "properties": {"norad_id": 66598, "name": "STARLINK-35981", "group": "last-30-days", "lat": 36.60331811623385, "lon": -41.371109492867994, "alt_km": 410.28051788051835, "timestamp": "2025-12-12T22:42:11.306458+00:00", "meta": {"OBJECT_NAME": "STARLINK-35981", "OBJECT_ID": "2025-270L", "EPOCH": "2025-12-12T06:00:00.999648", "MEAN_MOTION": 15.50542821, "ECCENTRICITY": 0.0001701, "INCLINATION": 42.9999, "RA_OF_ASC_NODE": 195.5527, "ARG_OF_PERICENTER": 268.4236, "MEAN_ANOMALY": 281.0866, "EPHEMERIS_TYPE": 0, "CLASSIFICATION_TYPE": "U", "NORAD_CAT_ID": 66598, "ELEMENT_SET_NO": 999, "REV_AT_EPOCH": 416, "BSTAR": 0.00025192524, "MEAN_MOTION_DOT": 0.00014446, "MEAN_MOTION_DDOT": 0}, "tle": {"line1": "1 66598U 25270L   25346.25001157  .00014446  00000+0  25193-3 0  9992", "line2": "2 66598  42.9999 195.5527 0001701 268.4236 281.0866 15.50542821  4167"}}, "geometry": {"type": "Point", "coordinates": [-41.371109492867994, 36.60331811623385]}}, {"type": "Feature", "properties": {"norad_id": 66599, "name": "STARLINK-35930", "group": "last-30-days", "lat": 35.79416503245869, "lon": -39.22043801998236, "alt_km": 409.566132052184, "timestamp": "2025-12-12T22:42:11.306468+00:00", "meta": {"OBJECT_NAME": "STARLINK-35930", "OBJECT_ID": "2025-270M", "EPOCH": "2025-12-12T06:00:00.999648", "MEAN_MOTION": 15.50607674, "ECCENTRICITY": 3.887e-05, "INCLINATION": 42.9997, "RA_OF_ASC_NODE": 195.5489, "ARG_OF_PERICENTER": 320.7074, "MEAN_ANOMALY": 230.6045, "EPHEMERIS_TYPE": 0, "CLASSIFICATION_TYPE": "U", "NORAD_CAT_ID": 66599, "ELEMENT_SET_NO": 999, "REV_AT_EPOCH": 432, "BSTAR": -0.00032987272, "MEAN_MOTION_DOT": -0.00019663, "MEAN_MOTION_DDOT": 0}, "tle": {"line1": "1 66599U 25270M   25346.25001157 -.00019663  00000+0 -32987-3 0  9990", "line2": "2 66599  42.9997 195.5489 0000388 320.7074 230.6045 15.50607674  4320"}}, "geometry": {"type": "Point", "coordinates": [-39.22043801998236, 35.79416503245869]}}, {"type": "Feature", "properties": {"norad_id": 66600, "name": "STARLINK-35980", "group": "last-30-days", "lat": 34.94841644217464, "lon": -37.11682255253496, "alt_km": 410.94111907586193, "timestamp": "2025-12-12T22:42:11.306480+00:00", "meta": {"OBJECT_NAME": "STARLINK-35980", "OBJECT_ID": "2025-270N", "EPOCH": "2025-12-12T06:00:00.999648", "MEAN_MOTION": 15.50563396, "ECCENTRICITY": 0.00023767, "INCLINATION": 42.9999, "RA_OF_ASC_NODE": 195.5437, "ARG_OF_PERICENTER": 275.7381, "MEAN_ANOMALY": 277.5533, "EPHEMERIS_TYPE": 0, "CLASSIFICATION_TYPE": "U", "NORAD_CAT_ID": 66600, "ELEMENT_SET_NO": 999, "REV_AT_EPOCH": 422, "BSTAR": 0.00023387283, "MEAN_MOTION_DOT": 0.00013395, "MEAN_MOTION_DDOT": 0}, "tle": {"line1": "1 66600U 25270N   25346.25001157  .00013395  00000+0  23387-3 0  9991", "line2": "2 66600  42.9999 195.5437 0002376 275.7381 277.5533 15.50563396  4220"}}, "geometry": {"type": "Point", "coordinates": [-37.11682255253496, 34.94841644217464]}}, {"type": "Feature", "properties": {"norad_id": 66601, "name": "STARLINK-35978", "group": "last-30-days", "lat": 34.089404696507835, "lon": -35.10839835252845, "alt_km": 410.7498178286469, "timestamp": "2025-12-12T22:42:11.306491+00:00", "meta": {"OBJECT_NAME": "STARLINK-35978", "OBJECT_ID": "2025-270P", "EPOCH": "2025-12-12T06:00:00.999648", "MEAN_MOTION": 15.50624602, "ECCENTRICITY": 0.00012809, "INCLINATION": 42.9999, "RA_OF_ASC_NODE": 195.5387, "ARG_OF_PERICENTER": 281.6377, "MEAN_ANOMALY": 273.5704, "EPHEMERIS_TYPE": 0, "CLASSIFICATION_TYPE": "U", "NORAD_CAT_ID": 66601, "ELEMENT_SET_NO": 999, "REV_AT_EPOCH": 416, "BSTAR": -0.0018194629, "MEAN_MOTION_DOT": -0.0010582, "MEAN_MOTION_DDOT": 0}, "tle": {"line1": "1 66601U 25270P   25346.25001157 -.00105820  00000+0 -18195-2 0  9999", "line2": "2 66601  42.9999 195.5387 0001280 281.6377 273.5704 15.50624602  4166"}}, "geometry": {"type": "Point", "coordinates": [-35.10839835252845, 34.089404696507835]}}, {"type": "Feature", "properties": {"norad_id": 66602, "name": "STARLINK-36050", "group": "last-30-days", "lat": 39.804239064068376, "lon": -51.906789215086995, "alt_km": 428.77484692629423, "timestamp": "2025-12-12T22:42:11.306501+00:00", "meta": {"OBJECT_NAME": "STARLINK-36050", "OBJECT_ID": "2025-270Q", "EPOCH": "2025-12-12T06:00:00.999648", "MEAN_MOTION": 15.47306382, "ECCENTRICITY": 0.00013369, "INCLINATION": 43.0001, "RA_OF_ASC_NODE": 195.5447, "ARG_OF_PERICENTER": 261.5299, "MEAN_ANOMALY": 291.2516, "EPHEMERIS_TYPE": 0, "CLASSIFICATION_TYPE": "U", "NORAD_CAT_ID": 66602, "ELEMENT_SET_NO": 999, "REV_AT_EPOCH": 422, "BSTAR": -0.0452862, "MEAN_MOTION_DOT": -0.02100143, "MEAN_MOTION_DDOT": 0}, "tle": {"line1": "1 66602U 25270Q   25346.25001157 -.02100143  00000+0 -45286-1 0  9995", "line2": "2 66602  43.0001 195.5447 0001336 261.5299 291.2516 15.47306382  4225"}}, "geometry": {"type": "Point", "coordinates": [-51.906789215086995, 39.804239064068376]}}, {"type": "Feature", "properties": {"norad_id": 66603, "name": "STARLINK-36048", "group": "last-30-days", "lat": 32.20832732551444, "lon": -31.07552086385901, "alt_km": 410.7755621027809, "timestamp": "2025-12-12T22:42:11.306515+00:00", "meta": {"OBJECT_NAME": "STARLINK-36048", "OBJECT_ID": "2025-270R", "EPOCH": "2025-12-12T06:00:00.999648", "MEAN_MOTION": 15.50517168, "ECCENTRICITY": 0.00017226, "INCLINATION": 42.9999, "RA_OF_ASC_NODE": 195.5287, "ARG_OF_PERICENTER": 263.0052, "MEAN_ANOMALY": 296.0828, "EPHEMERIS_TYPE": 0, "CLASSIFICATION_TYPE": "U", "NORAD_CAT_ID": 66603, "ELEMENT_SET_NO": 999, "REV_AT_EPOCH": 422, "BSTAR": 0.00077329921, "MEAN_MOTION_DOT": 0.00045187, "MEAN_MOTION_DDOT": 0}, "tle": {"line1": "1 66603U 25270R   25346.25001157  .00045187  00000+0  77330-3 0  9995", "line2": "2 66603  42.9999 195.5287 0001722 263.0052 296.0828 15.50517168  4224"}}, "geometry": {"type": "Point", "coordinates": [-31.07552086385901, 32.20832732551444]}}, {"type": "Feature", "properties": {"norad_id": 66604, "name": "STARLINK-35977", "group": "last-30-days", "lat": 31.23849445515987, "lon": -29.157510593518335, "alt_km": 411.1014860778714, "timestamp": "2025-12-12T22:42:11.306525+00:00", "meta": {"OBJECT_NAME": "STARLINK-35977", "OBJECT_ID": "2025-270S", "EPOCH": "2025-12-12T06:00:00.999648", "MEAN_MOTION": 15.50553835, "ECCENTRICITY": 0.00014546, "INCLINATION": 42.9998, "RA_OF_ASC_NODE": 195.5238, "ARG_OF_PERICENTER": 271.0032, "MEAN_ANOMALY": 290.0321, "EPHEMERIS_TYPE": 0, "CLASSIFICATION_TYPE": "U", "NORAD_CAT_ID": 66604, "ELEMENT_SET_NO": 999, "REV_AT_EPOCH": 432, "BSTAR": -0.00062861227, "MEAN_MOTION_DOT": -0.00037012, "MEAN_MOTION_DDOT": 0}, "tle": {"line1": "1 66604U 25270S   25346.25001157 -.00037012  00000+0 -62861-3 0  9999", "line2": "2 66604  42.9998 195.5238 0001454 271.0032 290.0321 15.50553835  4323"}}, "geometry": {"type": "Point", "coordinates": [-29.157510593518335, 31.23849445515987]}}, {"type": "Feature", "properties": {"norad_id": 66605, "name": "STARLINK-36052", "group": "last-30-days", "lat": 30.242980287696895, "lon": -27.28280975053333, "alt_km": 411.5738717702134, "timestamp": "2025-12-12T22:42:11.306535+00:00", "meta": {"OBJECT_NAME": "STARLINK-36052", "OBJECT_ID": "2025-270T", "EPOCH": "2025-12-12T06:00:00.999648", "MEAN_MOTION": 15.50630958, "ECCENTRICITY": 0.00019017, "INCLINATION": 42.9999, "RA_OF_ASC_NODE": 195.5195, "ARG_OF_PERICENTER": 271.923, "MEAN_ANOMALY": 290.9397, "EPHEMERIS_TYPE": 0, "CLASSIFICATION_TYPE": "U", "NORAD_CAT_ID": 66605, "ELEMENT_SET_NO": 999, "REV_AT_EPOCH": 432, "BSTAR": -0.001824379, "MEAN_MOTION_DOT": -0.00106132, "MEAN_MOTION_DDOT": 0}, "tle": {"line1": "1 66605U 25270T   25346.25001157 -.00106132  00000+0 -18244-2 0  9995", "line2": "2 66605  42.9999 195.5195 0001901 271.9230 290.9397 15.50630958  4327"}}, "geometry": {"type": "Point", "coordinates": [-27.28280975053333, 30.242980287696895]}}, {"type": "Feature", "properties": {"norad_id": 66606, "name": "STARLINK-36063", "group": "last-30-days", "lat": 28.143393044809866, "lon": -23.595245768996183, "alt_km": 411.47539291429075, "timestamp": "2025-12-12T22:42:11.306545+00:00", "meta": {"OBJECT_NAME": "STARLINK-36063", "OBJECT_ID": "2025-270U", "EPOCH": "2025-12-12T06:00:00.999648", "MEAN_MOTION": 15.50579029, "ECCENTRICITY": 0.00016383, "INCLINATION": 42.9999, "RA_OF_ASC_NODE": 195.5094, "ARG_OF_PERICENTER": 266.5599, "MEAN_ANOMALY": 300.1453, "EPHEMERIS_TYPE": 0, "CLASSIFICATION_TYPE": "U", "NORAD_CAT_ID": 66606, "ELEMENT_SET_NO": 999, "REV_AT_EPOCH": 432, "BSTAR": -0.0005116005, "MEAN_MOTION_DOT": -0.00030239, "MEAN_MOTION_DDOT": 0}, "tle": {"line1": "1 66606U 25270U   25346.25001157 -.00030239  00000+0 -51160-3 0  9995", "line2": "2 66606  42.9999 195.5094 0001638 266.5599 300.1453 15.50579029  4329"}}, "geometry": {"type": "Point", "coordinates": [-23.595245768996183, 28.143393044809866]}}, {"type": "Feature", "properties": {"norad_id": 66607, "name": "STARLINK-35993", "group": "last-30-days", "lat": 29.211064950324857, "lon": -25.42862556744449, "alt_km": 411.71263373264173, "timestamp": "2025-12-12T22:42:11.306555+00:00", "meta": {"OBJECT_NAME": "STARLINK-35993", "OBJECT_ID": "2025-270V", "EPOCH": "2025-12-12T06:00:00.999648", "MEAN_MOTION": 15.50632506, "ECCENTRICITY": 0.00018144, "INCLINATION": 42.9999, "RA_OF_ASC_NODE": 195.515, "ARG_OF_PERICENTER": 273.4002, "MEAN_ANOMALY": 291.3839, "EPHEMERIS_TYPE": 0, "CLASSIFICATION_TYPE": "U", "NORAD_CAT_ID": 66607, "ELEMENT_SET_NO": 999, "REV_AT_EPOCH": 422, "BSTAR": -0.0019429352, "MEAN_MOTION_DOT": -0.00112915, "MEAN_MOTION_DDOT": 0}, "tle": {"line1": "1 66607U 25270V   25346.25001157 -.00112915  00000+0 -19429-2 0  9999", "line2": "2 66607  42.9999 195.5150 0001814 273.4002 291.3839 15.50632506  4223"}}, "geometry": {"type": "Point", "coordinates": [-25.42862556744449, 29.211064950324857]}}]}